#dP2023  7 16 12  0  0.00000000      96 __u+U ITR00 EXT  IAC
## 2271  43200.00000000   900.00000000 60141 0.5000000000000
+  118   C06C07C08C09C10C11C12C13C14C16C19C20C21C22C23C24C25
+        C26C27C28C29C30C32C33C34C35C36C37C38C39C40C41C42C43
+        C44C45C46E02E03E04E05E07E08E09E10E11E12E13E14E15E18
+        E19E21E24E25E26E27E30E31E34E36G01G02G03G04G05G06G07
+        G08G09G10G11G12G13G14G15G16G17G18G19G20G21G22G23G24
+        G25G26G27G28G29G30G31G32J02J03J04R01R02R03R04R05R07
+        R08R09R11R12R13R14R15R16R17R18R19R20R21R22R24R25  0
++         0  0  0  0  0  0  0  0  0  0  0  0  0  0  0  0  0
++         0  0  0  0  0  0  0  0  0  0  0  0  0  0  0  0  0
++         0  0  0  0  0  0  0  0  0  0  0  0  0  0  0  0  0
++         0  0  0  0  0  0  0  0  0  0  0  0  0  0  0  0  0
++         0  0  0  0  0  0  0  0  0  0  0  0  0  0  0  0  0
++         0  0  0  0  0  0  0  0  0  0  0  0  0  0  0  0  0
++         0  0  0  0  0  0  0  0  0  0  0  0  0  0  0  0  0
%c M  cc GPS ccc cccc cccc cccc cccc ccccc ccccc ccccc ccccc
%c cc cc ccc ccc cccc cccc cccc cccc ccccc ccccc ccccc ccccc
%f  0.0000000  0.000000000  0.00000000000  0.000000000000000
%f  0.0000000  0.000000000  0.00000000000  0.000000000000000
%i    0    0    0    0      0      0      0      0         0
%i    0    0    0    0      0      0      0      0         0
/* IAC                                ULTRA-RAPID PREDICTION
/* S/V CLOCKS ARE ALIGNED TO GNSS TIME                      
/* G:C1WC2W R:C1PC2P E:C1XC5X C:C2IC6I J:C1CC2S             
/* PCV:IGS20_2247 OL/AL:FES2004  NONE     YN ORB:CoN CLK:CoN
*  2023 07 16 14  0  0.00000000
PC06  -5531.084893  24716.925423  33771.034009    339.980201
PC07 -16486.236987  34047.013214 -18743.685161   -331.648227
PC08  -4346.501468  39968.660679 -12359.922110    426.048462
PC09   5001.966345  28834.694046  30972.448747    409.428003
PC10 -11254.045790  33946.259459 -22417.728842   -116.250600
PC11  19285.915009  14952.748068 -13449.841593    729.178695
PC12   -132.623656  15790.596203 -22974.492736    792.810957
PC13    293.251523  41589.792207  -5795.920548    316.572385
PC14   9148.844815  13032.923673  22932.967839     67.705173
PC16  -5957.075966  24049.002312  34394.825646      3.636311
PC19 -16576.779745  -4415.940926 -21996.010281   -940.697466
PC20  -1904.195041 -18339.807001 -20928.856699    431.597465
PC21 -15227.789842  22318.204238   7056.640242   -935.571786
PC22 -22527.086359  12762.630301 -10458.960311   -393.746085
PC23  15945.801485  -3603.381486 -22603.386825   -941.415422
PC24   6902.878099  27016.214087    761.819004    179.160577
PC25  16793.304787  15373.238964 -16129.225968    169.160227
PC26  -5142.710129  22378.855628  15824.730428   -149.578873
PC27   9654.878219 -13542.702760  22385.801522    170.436945
PC28  24159.389682  -3281.685559  13570.408327    127.063850
PC29 -25767.296212  -9467.092180   5021.629472    148.035621
PC30 -10701.178505 -16579.536419  19715.240362     -2.294504
PC32  15108.467470 -22397.866540  -6940.290232   -538.696574
PC33  16526.702425   4480.862368  22030.218655   -914.787464
PC34  12137.080015  16473.984636 -18997.046356    216.062120
PC35 -24245.871427   3946.556594 -13225.939110    587.378261
PC36 -16257.648638 -16479.078915  15617.436392   -326.351757
PC37   6308.289209 -21612.812582 -16481.945535   -793.946922
PC38  -8973.667901  36442.190743 -19012.312821     91.946213
PC39 -12404.272984  20819.717830  34533.797451     -3.846732
PC40 -24609.599851  29247.962462 -18063.567846    -29.623864
PC41  22504.089335 -12219.594850  11123.526811   -901.957214
PC42    607.951781  19200.347479  20292.151316   -610.326547
PC43  25382.733972  10050.104510  -5839.762498     30.961950
PC44  -9345.739333  13985.724334 -22278.934641    170.446688
PC45 -15691.218352   4123.177232  22712.117452     -2.517566
PC46  -7791.820190 -26810.054076    604.138350    -69.319634
PE02  -9037.275608 -19112.580252  20723.094782     50.095902
PE03 -17900.411929 -10825.314419 -20949.044599    -36.584831
PE04  28805.128371  -2240.529258   6432.236114   -167.983689
PE05   3652.522662 -17742.535213 -23404.562357      0.128367
PE07 -23161.870926  14101.505329  11891.694426    -60.366564
PE08 -28742.077099   2065.079289  -6802.001209   -115.315683
PE09  23254.450778 -13987.836079 -11796.639092    -86.657920
PE10  18908.511330  -1346.957027  22717.005491   -548.943885
PE11  11560.661818 -11175.504588  24834.104785   2499.418571
PE12  22762.519984   7810.417243  17232.858476   -620.505239
PE13 -12085.192128  10519.140018 -24892.977971    -19.326339
PE14 -11875.078368 -13835.861851  18404.825893    283.883105
PE15 -22819.131995  -8126.542549 -17013.482463    -37.551828
PE18   1098.072469  19747.610034 -23500.743067    302.660979
PE19  15363.492770  12177.964854  22185.230235  -2063.713421
PE21  -4012.959096  28609.570921  -6451.865513   -541.056025
PE24  15831.611353 -21489.524203 -12822.350640   -212.705772
PE25   4247.832886 -28644.917128   6139.473740   -608.382076
PE26   6122.109759  23068.371418 -17508.479303    164.699641
PE27 -15480.973775  22032.998216  12293.354819   -100.636238
PE30 -17670.989643   1929.060428  23662.483974   -340.247336
PE31  17698.203055  -2567.199873 -23575.630784     -0.516753
PE34 -20110.047367 -21718.070974    681.225426    -56.389540
PE36  -5573.905953 -22750.063763  18090.233000    -86.791169
PG01  20537.229488  12631.348067  11177.164073    172.743717
PG02  21430.467298  14929.473782   5753.126978   -575.567634
PG03  14577.788891   2695.825974  21890.080605   -230.112090
PG04  25411.072936   1173.033469   7854.573438     97.436576
PG05  -7434.487749 -18543.207539 -17628.366906   -135.114497
PG06    796.910700 -18314.216281  19243.013022    577.362077
PG07  16861.311922  -2570.004927 -20010.125799    123.455499
PG08  18827.576042   7979.410150 -17232.800614   -132.478873
PG09  25603.365017  -7007.006541  -1501.345772   -110.787206
PG10 -10996.197611  23506.010125  -4620.347392    -45.386148
PG11 -11416.697030 -22721.507081   7753.270225   -278.516794
PG12 -13163.850541  -7331.994247  21599.257881   -401.388262
PG13 -10817.957264 -13350.583006 -20493.087339    547.862823
PG14  13544.325025 -21478.301017  -7482.841231    124.110101
PG15 -20037.548609  -6104.902464 -16944.607899     58.565344
PG16   2412.987841  21460.459408 -15457.437564   -480.090638
PG17  16205.517173 -13663.800449  16498.795501    721.058177
PG18 -14644.147086   5398.665188 -21514.507905   -347.660605
PG19   8717.545551 -14610.683959  20089.751677    344.667896
PG20  -2579.863804 -25022.264249  -8778.545201    422.370999
PG21  20981.577708  16878.879349   3011.802624    152.084174
PG22  -4742.236998  15578.924054  21408.571031    513.579222
PG23 -15451.223800  14890.601971 -15540.611256     43.909488
PG24 -21757.887621 -14219.357627   6083.415795   -259.655585
PG25 -16524.315723   7199.169497  19107.215350    456.462832
PG26  -3353.937428  25836.375161  -4225.634716    236.285595
PG27   7151.480718  13847.332332 -21800.621614     -4.240222
PG28  -2249.376753  17604.061660  19741.764525     82.318004
PG29 -26356.248269   3695.341862   -409.475519   -605.635408
PG30  10029.562383 -12265.709039 -21177.787905   -503.851232
PG31   7201.653351  22020.327988  12416.939996   -220.155820
PG32 -12813.549145  15356.046136  17560.912406   -522.251704
PJ02 -31939.265281  25236.031301  16208.135426     -1.437763
PJ03 -24930.733050  17726.311809 -24411.604228     -0.124261
PJ04 -24596.460980  34441.068441   3180.107889     96.961520
PR01  -4745.547738 -10101.026674 -22936.389819     61.500654
PR02 -18522.141881   2978.358025 -17207.044158    -22.606987
PR03 -21217.579358  14021.181700  -1493.660371     81.620976
PR04 -12353.231937  16814.470208  14694.403151    195.156820
PR05   3278.569117  10666.068055  22946.544656    115.854606
PR07  21123.286902 -14326.147127    783.731280     60.301144
PR08  12137.230987 -16924.579787 -14691.695694    -71.672859
PR09  11586.424680   7501.754161 -21446.197194    131.482764
PR11   2111.283978 -23558.419089  -9511.617567   -105.961024
PR12  -6780.989515 -22657.773596   9601.368770     29.149632
PR13 -11098.411460  -9672.961537  20822.380588    -37.159081
PR14  -9051.821635  11504.991602  20913.221822     24.967396
PR15  -1770.745751  24060.158412   8324.864825     87.788813
PR16   6730.740128  22806.740580  -9267.188331     16.716516
PR17 -16855.885037   1660.122224 -19089.297282      0.313531
PR18  -1498.135055  10801.456028 -23053.751526     91.858258
PR19  12904.447127  14854.397036 -16232.884772   -240.031464
PR20  23087.344585  10307.958955   3514.328745    -96.688214
PR21  15855.961854  -2307.255721  19829.664412    -23.145955
PR22   1114.859145 -11527.387748  22748.278170     96.096844
PR24 -23486.206102  -9106.395503  -4078.620307    -16.767593
PR25  17039.271444  -1109.011729  18940.735927     47.025373
EOF
